NORAD_CAT_ID,OBJECT_NAME,OBJECT_TYPE,EPOCH,MEAN_MOTION,ECCENTRICITY,INCLINATION,RA_OF_ASC_NODE,ARG_OF_PERICENTER,MEAN_ANOMALY,BSTAR,MEAN_MOTION_DOT,MEAN_MOTION_DDOT,TLE_LINE0,TLE_LINE1,TLE_LINE2,SEMIMAJOR_AXIS,PERIOD,APOGEE,PERIGEE,DECAYED
51733.0,STARLINK-3525,PAYLOAD,2024-05-07 04:42:03,15.08853348,0.0001444,53.2163,93.5823,83.7512,276.3645,0.00015376,2.161e-05,0.0,0 STARLINK-3525,1 51733U 22016V   24128.19586921  .00002161  00000-0  15376-3 0  9993,2 51733  53.2163  93.5823 0001444  83.7512 276.3645 15.08853348123251,6917.84,95.437,540.704,538.706,0.0
51733.0,STARLINK-3525,PAYLOAD,2024-05-07 07:52:49,15.08853633,0.0001453,53.2164,92.9877,83.7493,276.3664,0.00014771,2.064e-05,0.0,0 STARLINK-3525,1 51733U 22016V   24128.32834804  .00002064  00000-0  14771-3 0  9994,2 51733  53.2164  92.9877 0001453  83.7493 276.3664 15.08853633122215,6917.839,95.437,540.709,538.699,0.0
51733.0,STARLINK-3525,PAYLOAD,2024-05-07 14:14:22,15.08844704,0.0001378,53.2162,91.7974,80.0935,280.0212,4.4829e-06,-2.17e-06,0.0,0 STARLINK-3525,1 51733U 22016V   24128.59331062 -.00000217  00000-0  44829-5 0  9999,2 51733  53.2162  91.7974 0001378  80.0935 280.0212 15.08844704123317,6917.866,95.437,540.684,538.778,0.0
51733.0,STARLINK-3525,PAYLOAD,2024-05-08 04:32:51,15.08827788,0.0001532,53.2176,89.1261,94.6332,265.4835,-0.00026332,-4.475e-05,0.0,0 STARLINK-3525,1 51733U 22016V   24129.18948149 -.00004475  00000-0 -26332-3 0  9993,2 51733  53.2176  89.1261 0001532  94.6332 265.4835 15.08827788123407,6917.918,95.438,540.843,538.723,0.0
51733.0,STARLINK-3525,PAYLOAD,2024-05-08 14:05:10,15.08832806,0.0001693,53.2193,87.3421,95.3538,264.7647,-0.00014674,-2.622e-05,0.0,0 STARLINK-3525,1 51733U 22016V   24129.58692148 -.00002622  00000-0 -14674-3 0  9990,2 51733  53.2193  87.3421 0001693  95.3538 264.7647 15.08832806122407,6917.902,95.438,540.939,538.596,0.0
51733.0,STARLINK-3525,PAYLOAD,2024-05-09 04:23:37,15.08849902,0.0001584,53.2187,84.6664,97.8207,262.2965,0.00024239,3.573e-05,0.0,0 STARLINK-3525,1 51733U 22016V   24130.18307656  .00003573  00000-0  24239-3 0  9997,2 51733  53.2187  84.6664 0001584  97.8207 262.2965 15.08849902123556,6917.85,95.437,540.811,538.619,0.0
51733.0,STARLINK-3525,PAYLOAD,2024-05-09 05:59:01,15.08850016,0.0001553,53.2185,84.3686,94.899,265.218,0.00040417,6.152e-05,0.0,0 STARLINK-3525,1 51733U 22016V   24130.24931823  .00006152  00000-0  40417-3 0  9995,2 51733  53.2185  84.3686 0001553  94.8990 265.2180 15.08850016122501,6917.85,95.437,540.789,538.64,0.0
51733.0,STARLINK-3525,PAYLOAD,2024-05-09 13:55:56,15.08845063,0.0001584,53.2175,82.8793,94.2965,265.8208,0.00030441,4.561e-05,0.0,0 STARLINK-3525,1 51733U 22016V   24130.58052070  .00004561  00000-0  30441-3 0  9998,2 51733  53.2175  82.8793 0001584  94.2965 265.8208 15.08845063123618,6917.865,95.437,540.826,538.634,0.0
51733.0,STARLINK-3525,PAYLOAD,2024-05-10 13:46:43,15.08845426,0.0001323,53.2163,78.4159,88.3468,271.7675,0.00020066,2.907e-05,0.0,0 STARLINK-3525,1 51733U 22016V   24131.57412023  .00002907  00000-0  20066-3 0  9990,2 51733  53.2163  78.4159 0001323  88.3468 271.7675 15.08845426122701,6917.864,95.437,540.644,538.814,0.0
51733.0,STARLINK-3525,PAYLOAD,2024-05-11 04:05:10,15.0887615,0.000147,53.2183,75.7414,108.5257,251.5895,0.0006738,0.00010462,0.0,0 STARLINK-3525,1 51733U 22016V   24132.17026588  .00010462  00000-0  67380-3 0  9999,2 51733  53.2183  75.7414 0001470 108.5257 251.5895 15.08876150123856,6917.77,95.435,540.652,538.618,0.0
51733.0,STARLINK-3525,PAYLOAD,2024-05-11 19:59:00,15.08883969,0.0001513,53.2181,72.7665,97.4398,262.6766,0.00063767,9.887e-05,0.0,0 STARLINK-3525,1 51733U 22016V   24132.83264959  .00009887  00000-0  63767-3 0  9992,2 51733  53.2181  72.7665 0001513  97.4398 262.6766 15.08883969122898,6917.746,95.435,540.658,538.564,0.0
51733.0,STARLINK-3525,PAYLOAD,2024-05-12 02:20:35,15.08803416,0.0001602,53.218,71.5771,102.7099,257.4072,-0.001175,-0.00018921,0.0,0 STARLINK-3525,1 51733U 22016V   24133.09763620 -.00018921  00000-0 -11750-2 0  9995,2 51733  53.2180  71.5771 0001602 102.7099 257.4072 15.08803416123992,6917.992,95.44,540.965,538.749,0.0
51733.0,STARLINK-3525,PAYLOAD,2024-05-12 13:28:19,15.08799245,0.0001832,53.22,69.4963,100.783,259.3369,-0.00077764,-0.00012629,0.0,0 STARLINK-3525,1 51733U 22016V   24133.56133108 -.00012629  00000-0 -77764-3 0  9996,2 51733  53.2200  69.4963 0001832 100.7830 259.3369 15.08799245123006,6918.005,95.44,541.137,538.603,0.0
51733.0,STARLINK-3525,PAYLOAD,2024-05-12 19:49:51,15.08794368,0.0001566,53.2192,68.3068,102.9177,257.199,-0.00080198,-0.00013013,0.0,0 STARLINK-3525,1 51733U 22016V   24133.82629445 -.00013013  00000-0 -80198-3 0  9992,2 51733  53.2192  68.3068 0001566 102.9177 257.1990 15.08794368124101,6918.02,95.44,540.968,538.802,0.0
51733.0,STARLINK-3525,PAYLOAD,2024-05-12 23:00:38,15.08797358,0.0001564,53.2182,67.7139,99.8972,260.2197,-0.0005942,-9.721e-05,0.0,0 STARLINK-3525,1 51733U 22016V   24133.95877772 -.00009721  00000-0 -59420-3 0  9999,2 51733  53.2182  67.7139 0001564  99.8972 260.2197 15.08797358123067,6918.011,95.44,540.958,538.794,0.0
51733.0,STARLINK-3525,PAYLOAD,2024-05-13 05:22:12,15.08786238,0.0001772,53.2185,66.5244,104.8737,255.2452,0.00090338,0.00014097,0.0,0 STARLINK-3525,1 51733U 22016V   24134.22375371  .00014097  00000-0  90338-3 0  9991,2 51733  53.2185  66.5244 0001772 104.8737 255.2452 15.08786238123109,6918.045,95.441,541.136,538.684,0.0
51733.0,STARLINK-3525,PAYLOAD,2024-05-14 00:26:49,15.08846071,0.000179,53.2188,62.9579,103.5441,256.5751,0.0011328,0.00017789,0.0,0 STARLINK-3525,1 51733U 22016V   24135.01863190  .00017789  00000-0  11328-2 0  9992,2 51733  53.2188  62.9579 0001790 103.5441 256.5751 15.08846071124289,6917.862,95.437,540.965,538.489,0.0
51733.0,STARLINK-3525,PAYLOAD,2024-05-14 11:34:30,15.08870739,0.0001628,53.2179,60.8755,91.7647,268.3532,0.00097225,0.00015232,0.0,0 STARLINK-3525,1 51733U 22016V   24135.48230279  .00015232  00000-0  97225-3 0  9991,2 51733  53.2179  60.8755 0001628  91.7647 268.3532 15.08870739123294,6917.786,95.436,540.778,538.525,0.0
51733.0,STARLINK-3525,PAYLOAD,2024-05-14 22:42:12,15.08876119,0.000189,53.2191,58.7968,114.4309,245.688,0.00071481,0.00011118,0.0,0 STARLINK-3525,1 51733U 22016V   24135.94597315  .00011118  00000-0  71481-3 0  9994,2 51733  53.2191  58.7968 0001890 114.4309 245.6880 15.08876119123369,6917.77,95.435,540.942,538.328,0.0
51733.0,STARLINK-3525,PAYLOAD,2024-05-15 05:03:43,15.08894597,0.000164,53.2185,57.6051,105.4402,254.6771,0.0011907,0.00018741,0.0,0 STARLINK-3525,1 51733U 22016V   24136.21092317  .00018741  00000-0  11907-2 0  9992,2 51733  53.2185  57.6051 0001640 105.4402 254.6771 15.08894597124461,6917.714,95.434,540.713,538.444,0.0
51733.0,STARLINK-3525,PAYLOAD,2024-05-15 17:46:49,15.08862109,0.000215,53.2183,55.2252,93.0087,267.1151,0.00022368,3.276e-05,0.0,0 STARLINK-3525,1 51733U 22016V   24136.74084500  .00003276  00000-0  22368-3 0  9996,2 51733  53.2183  55.2252 0002150  93.0087 267.1151 15.08862109124548,6917.813,95.436,541.165,538.19,0.0
51733.0,STARLINK-3525,PAYLOAD,2024-05-15 22:32:58,15.08857004,0.0001781,53.2177,54.3296,111.3213,248.797,0.00028878,4.313e-05,0.0,0 STARLINK-3525,1 51733U 22016V   24136.93956371  .00004313  00000-0  28878-3 0  9996,2 51733  53.2177  54.3296 0001781 111.3213 248.7970 15.08857004123511,6917.828,95.436,540.925,538.461,0.0
51733.0,STARLINK-3525,PAYLOAD,2024-05-16 01:43:44,15.0885257,0.0001506,53.2185,53.7404,99.5064,260.6098,0.00026423,3.921e-05,0.0,0 STARLINK-3525,1 51733U 22016V   24137.07204439  .00003921  00000-0  26423-3 0  9991,2 51733  53.2185  53.7404 0001506  99.5064 260.6098 15.08852570124596,6917.842,95.437,540.749,538.665,0.0
51733.0,STARLINK-3525,PAYLOAD,2024-05-16 11:16:03,15.08851775,0.000124,53.2169,51.9546,84.9759,275.1375,0.00076719,0.00011947,0.0,0 STARLINK-3525,1 51733U 22016V   24137.46948418  .00011947  00000-0  76719-3 0  9996,2 51733  53.2169  51.9546 0001240  84.9759 275.1375 15.08851775123593,6917.844,95.437,540.567,538.852,0.0
51733.0,STARLINK-3525,PAYLOAD,2024-05-16 17:37:36,15.08850947,0.0001916,53.2176,50.7645,89.7541,270.367,0.0003196,4.803e-05,0.0,0 STARLINK-3525,1 51733U 22016V   24137.73444475  .00004803  00000-0  31960-3 0  9992,2 51733  53.2176  50.7645 0001916  89.7541 270.3670 15.08850947124697,6917.847,95.437,541.037,538.386,0.0
51733.0,STARLINK-3525,PAYLOAD,2024-05-17 11:06:50,15.08838657,0.0001404,53.2174,47.4933,91.9043,268.211,0.00016688,2.369e-05,0.0,0 STARLINK-3525,1 51733U 22016V   24138.46308478  .00002369  00000-0  16688-3 0  9990,2 51733  53.2174  47.4933 0001404  91.9043 268.2110 15.08838657124804,6917.884,95.438,540.721,538.778,0.0
51733.0,STARLINK-3525,PAYLOAD,2024-05-17 17:28:23,15.08812218,0.0001706,53.2173,46.3032,99.6571,260.4614,-0.00060141,-9.839e-05,0.0,0 STARLINK-3525,1 51733U 22016V   24138.72805418 -.00009839  00000-0 -60141-3 0  9999,2 51733  53.2173  46.3032 0001706  99.6571 260.4614 15.08812218124849,6917.965,95.439,541.011,538.65,0.0
51733.0,STARLINK-3525,PAYLOAD,2024-05-17 22:14:33,15.08821738,0.0001862,53.2168,45.4137,89.0526,271.0679,-0.00027091,-4.595e-05,0.0,0 STARLINK-3525,1 51733U 22016V   24138.92677575 -.00004595  00000-0 -27091-3 0  9993,2 51733  53.2168  45.4137 0001862  89.0526 271.0679 15.08821738123817,6917.936,95.439,541.089,538.513,0.0
51733.0,STARLINK-3525,PAYLOAD,2024-05-18 01:25:19,15.08832715,0.0001673,53.2176,44.815,104.2145,255.9033,0.0003783,5.737e-05,0.0,0 STARLINK-3525,1 51733U 22016V   24139.05925356  .00005737  00000-0  37830-3 0  9990,2 51733  53.2176  44.8150 0001673 104.2145 255.9033 15.08832715124892,6917.903,95.438,540.925,538.61,0.0
51733.0,STARLINK-3525,PAYLOAD,2024-05-18 10:57:39,15.08819258,0.0001955,53.2167,43.0332,92.8481,267.2735,0.00041577,6.331e-05,0.0,0 STARLINK-3525,1 51733U 22016V   24139.45670480  .00006331  00000-0  41577-3 0  9993,2 51733  53.2167  43.0332 0001955  92.8481 267.2735 15.08819258124952,6917.944,95.439,541.161,538.456,0.0
